start=new Date('2022-08-25T00:00:00.000Z').valueOf();
sats=[{"BSTAR":"0.00008046400000","REV_AT_EPOCH":"8687","OBJECT_NAME":"STARLINK-2083","OBJECT_TYPE":"PAYLOAD","EPHEMERIS_TYPE":"0","APOAPSIS":"548.187","MEAN_MOTION_DDOT":"0.0000000000000","COUNTRY_CODE":"US","REF_FRAME":"TEME","TIME_SYSTEM":"UTC","SEMIMAJOR_AXIS":"6925.354","TLE_LINE1":"1 47676U 21012BJ  22236.50282514  .00000917  00000-0  80464-4 0  9991","NORAD_CAT_ID":"47676","RCS_SIZE":"LARGE","EPOCH":"2022-08-24T12:04:04.092096","PERIAPSIS":"546.250","INCLINATION":"53.0544","ELEMENT_SET_NO":"999","CLASSIFICATION_TYPE":"U","FILE":"3546350","LAUNCH_DATE":"2021-02-16","MEAN_ELEMENT_THEORY":"SGP4","MEAN_MOTION":"15.06398338","MEAN_MOTION_DOT":"0.00000917","CENTER_NAME":"EARTH","DECAY_DATE":null,"PERIOD":"95.592","TLE_LINE2":"2 47676  53.0544 346.9600 0001398  80.4603 279.6544 15.06398338 86875","OBJECT_ID":"2021-012BJ","SITE":"AFETR","GP_ID":"210901719","ECCENTRICITY":"0.00013980","ARG_OF_PERICENTER":"80.4603","RA_OF_ASC_NODE":"346.9600","MEAN_ANOMALY":"279.6544"},{"COUNTRY_CODE":"US","APOAPSIS":"548.416","MEAN_MOTION_DDOT":"0.0000000000000","REF_FRAME":"TEME","REV_AT_EPOCH":"8500","OBJECT_NAME":"STARLINK-2090","BSTAR":"0.00004405400000","OBJECT_TYPE":"PAYLOAD","EPHEMERIS_TYPE":"0","EPOCH":"2022-08-24T02:17:32.420832","PERIAPSIS":"546.046","RCS_SIZE":"LARGE","ELEMENT_SET_NO":"999","INCLINATION":"53.0549","TIME_SYSTEM":"UTC","NORAD_CAT_ID":"47677","SEMIMAJOR_AXIS":"6925.366","TLE_LINE1":"1 47677U 21012BK  22236.09551413  .00000375  00000-0  44054-4 0  9996","LAUNCH_DATE":"2021-02-16","MEAN_ELEMENT_THEORY":"SGP4","CENTER_NAME":"EARTH","DECAY_DATE":null,"MEAN_MOTION":"15.06394188","MEAN_MOTION_DOT":"0.00000375","CLASSIFICATION_TYPE":"U","FILE":"3546350","ARG_OF_PERICENTER":"65.5234","SITE":"AFETR","ECCENTRICITY":"0.00017110","GP_ID":"210901473","RA_OF_ASC_NODE":"118.7820","MEAN_ANOMALY":"294.5933","OBJECT_ID":"2021-012BK","PERIOD":"95.593","TLE_LINE2":"2 47677  53.0549 118.7820 0001711  65.5234 294.5933 15.06394188 85004"},{"CLASSIFICATION_TYPE":"U","FILE":"3546663","CENTER_NAME":"EARTH","DECAY_DATE":null,"MEAN_MOTION":"15.06404717","MEAN_MOTION_DOT":"0.00002967","LAUNCH_DATE":"2021-02-16","MEAN_ELEMENT_THEORY":"SGP4","OBJECT_ID":"2021-012BM","PERIOD":"95.592","TLE_LINE2":"2 47679  53.0540 115.6921 0001426  78.8564 281.2585 15.06404717 85120","MEAN_ANOMALY":"281.2585","RA_OF_ASC_NODE":"115.6921","ARG_OF_PERICENTER":"78.8564","SITE":"AFETR","GP_ID":"210932823","ECCENTRICITY":"0.00014260","OBJECT_TYPE":"PAYLOAD","EPHEMERIS_TYPE":"0","REV_AT_EPOCH":"8512","OBJECT_NAME":"STARLINK-2095","BSTAR":"0.00021798000000","REF_FRAME":"TEME","COUNTRY_CODE":"US","MEAN_MOTION_DDOT":"0.0000000000000","APOAPSIS":"548.187","NORAD_CAT_ID":"47679","SEMIMAJOR_AXIS":"6925.334","TLE_LINE1":"1 47679U 21012BM  22236.78846664  .00002967  00000-0  21798-3 0  9997","TIME_SYSTEM":"UTC","ELEMENT_SET_NO":"999","INCLINATION":"53.0540","EPOCH":"2022-08-24T18:55:23.517696","PERIAPSIS":"546.212","RCS_SIZE":"LARGE"},{"RCS_SIZE":"LARGE","PERIAPSIS":"546.176","EPOCH":"2022-08-24T10:23:57.932160","INCLINATION":"53.0525","ELEMENT_SET_NO":"999","TIME_SYSTEM":"UTC","TLE_LINE1":"1 47722U 21017A   22236.43330940  .00001283  00000-0  10507-3 0  9994","SEMIMAJOR_AXIS":"6925.379","NORAD_CAT_ID":"47722","MEAN_MOTION_DDOT":"0.0000000000000","APOAPSIS":"548.313","COUNTRY_CODE":"US","REF_FRAME":"TEME","BSTAR":"0.00010507000000","REV_AT_EPOCH":"8306","OBJECT_NAME":"STARLINK-2068","EPHEMERIS_TYPE":"0","OBJECT_TYPE":"PAYLOAD","ECCENTRICITY":"0.00015430","GP_ID":"210900477","SITE":"AFETR","ARG_OF_PERICENTER":"76.7018","RA_OF_ASC_NODE":"242.5037","MEAN_ANOMALY":"283.4143","TLE_LINE2":"2 47722  53.0525 242.5037 0001543  76.7018 283.4143 15.06390031 83069","PERIOD":"95.593","OBJECT_ID":"2021-017A","MEAN_ELEMENT_THEORY":"SGP4","LAUNCH_DATE":"2021-03-04","MEAN_MOTION_DOT":"0.00001283","MEAN_MOTION":"15.06390031","DECAY_DATE":null,"CENTER_NAME":"EARTH","FILE":"3546350","CLASSIFICATION_TYPE":"U"},{"CLASSIFICATION_TYPE":"U","FILE":"3546350","LAUNCH_DATE":"2021-03-04","MEAN_ELEMENT_THEORY":"SGP4","CENTER_NAME":"EARTH","DECAY_DATE":null,"MEAN_MOTION":"15.06399836","MEAN_MOTION_DOT":"0.00001627","OBJECT_ID":"2021-017B","PERIOD":"95.592","TLE_LINE2":"2 47723  53.0546 178.1407 0001512  76.4093 283.7065 15.06399836 83916","ARG_OF_PERICENTER":"76.4093","SITE":"AFETR","GP_ID":"210901724","ECCENTRICITY":"0.00015120","MEAN_ANOMALY":"283.7065","RA_OF_ASC_NODE":"178.1407","REV_AT_EPOCH":"8391","OBJECT_NAME":"STARLINK-2107","BSTAR":"0.00012811000000","OBJECT_TYPE":"PAYLOAD","EPHEMERIS_TYPE":"0","COUNTRY_CODE":"US","APOAPSIS":"548.261","MEAN_MOTION_DDOT":"0.0000000000000","REF_FRAME":"TEME","TIME_SYSTEM":"UTC","NORAD_CAT_ID":"47723","SEMIMAJOR_AXIS":"6925.349","TLE_LINE1":"1 47723U 21017B   22236.24203813  .00001627  00000-0  12811-3 0  9994","EPOCH":"2022-08-24T05:48:32.094432","PERIAPSIS":"546.167","RCS_SIZE":"LARGE","ELEMENT_SET_NO":"999","INCLINATION":"53.0546"},{"BSTAR":"0.00007958700000","REV_AT_EPOCH":"8397","OBJECT_NAME":"STARLINK-2116","OBJECT_TYPE":"PAYLOAD","EPHEMERIS_TYPE":"0","APOAPSIS":"548.220","MEAN_MOTION_DDOT":"0.0000000000000","COUNTRY_CODE":"US","REF_FRAME":"TEME","TIME_SYSTEM":"UTC","SEMIMAJOR_AXIS":"6925.367","TLE_LINE1":"1 47724U 21017C   22236.87601862  .00000904  00000-0  79587-4 0  9991","NORAD_CAT_ID":"47724","RCS_SIZE":"LARGE","EPOCH":"2022-08-24T21:01:28.008768","PERIAPSIS":"546.244","INCLINATION":"53.0550","ELEMENT_SET_NO":"999","CLASSIFICATION_TYPE":"U","FILE":"3546663","MEAN_ELEMENT_THEORY":"SGP4","LAUNCH_DATE":"2021-03-04","MEAN_MOTION":"15.06393986","MEAN_MOTION_DOT":"0.00000904","CENTER_NAME":"EARTH","DECAY_DATE":null,"PERIOD":"95.593","TLE_LINE2":"2 47724  53.0550 175.2924 0001427  68.9157 291.1985 15.06393986 83976","OBJECT_ID":"2021-017C","SITE":"AFETR","ECCENTRICITY":"0.00014270","GP_ID":"210933581","ARG_OF_PERICENTER":"68.9157","MEAN_ANOMALY":"291.1985","RA_OF_ASC_NODE":"175.2924"},{"MEAN_ANOMALY":"288.1335","RA_OF_ASC_NODE":"247.2282","SITE":"AFETR","GP_ID":"210900727","ECCENTRICITY":"0.00015240","ARG_OF_PERICENTER":"71.9820","PERIOD":"95.592","TLE_LINE2":"2 47725  53.0532 247.2282 0001524  71.9820 288.1335 15.06395770 82947","OBJECT_ID":"2021-017D","MEAN_MOTION":"15.06395770","MEAN_MOTION_DOT":"-0.00000612","CENTER_NAME":"EARTH","DECAY_DATE":null,"MEAN_ELEMENT_THEORY":"SGP4","LAUNCH_DATE":"2021-03-04","CLASSIFICATION_TYPE":"U","FILE":"3546350","INCLINATION":"53.0532","ELEMENT_SET_NO":"999","RCS_SIZE":"LARGE","EPOCH":"2022-08-24T10:41:47.819040","PERIAPSIS":"546.171","SEMIMAJOR_AXIS":"6925.362","TLE_LINE1":"1 47725U 21017D   22236.44569235 -.00000612  00000-0 -22187-4 0  9994","NORAD_CAT_ID":"47725","TIME_SYSTEM":"UTC","REF_FRAME":"TEME","APOAPSIS":"548.282","MEAN_MOTION_DDOT":"0.0000000000000","COUNTRY_CODE":"US","OBJECT_TYPE":"PAYLOAD","EPHEMERIS_TYPE":"0","BSTAR":"-0.00002218700000","OBJECT_NAME":"STARLINK-2125","REV_AT_EPOCH":"8294"},{"RA_OF_ASC_NODE":"247.8821","MEAN_ANOMALY":"298.0753","ECCENTRICITY":"0.00014230","GP_ID":"210900977","SITE":"AFETR","ARG_OF_PERICENTER":"62.0380","TLE_LINE2":"2 47726  53.0543 247.8821 0001423  62.0380 298.0753 15.06398860 82919","PERIOD":"95.592","OBJECT_ID":"2021-017E","MEAN_MOTION_DOT":"0.00000651","MEAN_MOTION":"15.06398860","DECAY_DATE":null,"CENTER_NAME":"EARTH","MEAN_ELEMENT_THEORY":"SGP4","LAUNCH_DATE":"2021-03-04","FILE":"3546350","CLASSIFICATION_TYPE":"U","INCLINATION":"53.0543","ELEMENT_SET_NO":"999","RCS_SIZE":"LARGE","PERIAPSIS":"546.232","EPOCH":"2022-08-24T07:09:29.185344","TLE_LINE1":"1 47726U 21017E   22236.29825446  .00000651  00000-0  62581-4 0  9990","SEMIMAJOR_AXIS":"6925.352","NORAD_CAT_ID":"47726","TIME_SYSTEM":"UTC","REF_FRAME":"TEME","APOAPSIS":"548.203","MEAN_MOTION_DDOT":"0.0000000000000","COUNTRY_CODE":"US","EPHEMERIS_TYPE":"0","OBJECT_TYPE":"PAYLOAD","BSTAR":"0.00006258100000","OBJECT_NAME":"STARLINK-2126","REV_AT_EPOCH":"8291"},{"SEMIMAJOR_AXIS":"6925.388","TLE_LINE1":"1 47727U 21017F   22236.51478914  .00000111  00000-0  26351-4 0  9996","NORAD_CAT_ID":"47727","TIME_SYSTEM":"UTC","INCLINATION":"53.0554","ELEMENT_SET_NO":"999","RCS_SIZE":"LARGE","EPOCH":"2022-08-24T12:21:17.781696","PERIAPSIS":"545.987","OBJECT_TYPE":"PAYLOAD","EPHEMERIS_TYPE":"0","BSTAR":"0.00002635100000","REV_AT_EPOCH":"8410","OBJECT_NAME":"STARLINK-2129","REF_FRAME":"TEME","APOAPSIS":"548.519","MEAN_MOTION_DDOT":"0.0000000000000","COUNTRY_CODE":"US","PERIOD":"95.593","TLE_LINE2":"2 47727  53.0554 166.9219 0001828  60.2915 299.8256 15.06387099 84109","OBJECT_ID":"2021-017F","MEAN_ANOMALY":"299.8256","RA_OF_ASC_NODE":"166.9219","SITE":"AFETR","GP_ID":"210933331","ECCENTRICITY":"0.00018280","ARG_OF_PERICENTER":"60.2915","CLASSIFICATION_TYPE":"U","FILE":"3546663","MEAN_MOTION":"15.06387099","MEAN_MOTION_DOT":"0.00000111","CENTER_NAME":"EARTH","DECAY_DATE":null,"MEAN_ELEMENT_THEORY":"SGP4","LAUNCH_DATE":"2021-03-04"},{"OBJECT_ID":"2021-017G","PERIOD":"95.593","TLE_LINE2":"2 47728  53.0535 245.9131 0001442  75.5269 284.5880 15.06392883 83046","RA_OF_ASC_NODE":"245.9131","MEAN_ANOMALY":"284.5880","ARG_OF_PERICENTER":"75.5269","SITE":"AFETR","ECCENTRICITY":"0.00014420","GP_ID":"210934081","CLASSIFICATION_TYPE":"U","FILE":"3546663","CENTER_NAME":"EARTH","DECAY_DATE":null,"MEAN_MOTION":"15.06392883","MEAN_MOTION_DOT":"-0.00000503","MEAN_ELEMENT_THEORY":"SGP4","LAUNCH_DATE":"2021-03-04","NORAD_CAT_ID":"47728","SEMIMAJOR_AXIS":"6925.370","TLE_LINE1":"1 47728U 21017G   22236.73688683 -.00000503  00000-0 -14857-4 0  9992","TIME_SYSTEM":"UTC","ELEMENT_SET_NO":"999","INCLINATION":"53.0535","EPOCH":"2022-08-24T17:41:07.022112","PERIAPSIS":"546.237","RCS_SIZE":"LARGE","OBJECT_TYPE":"PAYLOAD","EPHEMERIS_TYPE":"0","REV_AT_EPOCH":"8304","OBJECT_NAME":"STARLINK-2131","BSTAR":"-0.00001485700000","REF_FRAME":"TEME","COUNTRY_CODE":"US","APOAPSIS":"548.234","MEAN_MOTION_DDOT":"0.0000000000000"}];
